[{"OBJECT_NAME":"ONEWEB-0206","OBJECT_ID":"2021-031T","EPOCH":"2026-02-09T05:35:23.805888","MEAN_MOTION":13.14504755,"ECCENTRICITY":0.00014633,"INCLINATION":87.9039,"RA_OF_ASC_NODE":315.2032,"ARG_OF_PERICENTER":75.3344,"MEAN_ANOMALY":284.7948,"EPHEMERIS_TYPE":0,"CLASSIFICATION_TYPE":"U","NORAD_CAT_ID":48227,"ELEMENT_SET_NO":999,"REV_AT_EPOCH":23141,"BSTAR":9.6799015e-5,"MEAN_MOTION_DOT":4.9e-7,"MEAN_MOTION_DDOT":0},{"OBJECT_NAME":"ONEWEB-0182","OBJECT_ID":"2021-031U","EPOCH":"2026-02-09T05:28:33.295296","MEAN_MOTION":13.1450362,"ECCENTRICITY":0.00018788,"INCLINATION":87.9023,"RA_OF_ASC_NODE":315.2209,"ARG_OF_PERICENTER":72.3778,"MEAN_ANOMALY":287.7557,"EPHEMERIS_TYPE":0,"CLASSIFICATION_TYPE":"U","NORAD_CAT_ID":48228,"ELEMENT_SET_NO":999,"REV_AT_EPOCH":23162,"BSTAR":0.00027009202,"MEAN_MOTION_DOT":1.13e-6,"MEAN_MOTION_DDOT":0},{"OBJECT_NAME":"ONEWEB-0186","OBJECT_ID":"2021-031V","EPOCH":"2026-02-09T05:44:31.568928","MEAN_MOTION":13.14505542,"ECCENTRICITY":0.00017809,"INCLINATION":87.9032,"RA_OF_ASC_NODE":315.2041,"ARG_OF_PERICENTER":83.1313,"MEAN_ANOMALY":277.0019,"EPHEMERIS_TYPE":0,"CLASSIFICATION_TYPE":"U","NORAD_CAT_ID":48229,"ELEMENT_SET_NO":999,"REV_AT_EPOCH":23157,"BSTAR":-0.00033318932,"MEAN_MOTION_DOT":-1.11e-6,"MEAN_MOTION_DDOT":0},{"OBJECT_NAME":"ONEWEB-0181","OBJECT_ID":"2021-031W","EPOCH":"2026-02-09T05:12:34.521408","MEAN_MOTION":13.14504511,"ECCENTRICITY":0.00017497,"INCLINATION":87.9017,"RA_OF_ASC_NODE":315.2543,"ARG_OF_PERICENTER":83.5709,"MEAN_ANOMALY":276.5619,"EPHEMERIS_TYPE":0,"CLASSIFICATION_TYPE":"U","NORAD_CAT_ID":48230,"ELEMENT_SET_NO":999,"REV_AT_EPOCH":23142,"BSTAR":0.00071569,"MEAN_MOTION_DOT":2.78e-6,"MEAN_MOTION_DDOT":0},{"OBJECT_NAME":"ONEWEB-0188","OBJECT_ID":"2021-031X","EPOCH":"2026-02-09T06:07:22.077696","MEAN_MOTION":13.14503326,"ECCENTRICITY":0.00017566,"INCLINATION":87.9017,"RA_OF_ASC_NODE":315.2447,"ARG_OF_PERICENTER":78.2204,"MEAN_ANOMALY":281.9123,"EPHEMERIS_TYPE":0,"CLASSIFICATION_TYPE":"U","NORAD_CAT_ID":48231,"ELEMENT_SET_NO":999,"REV_AT_EPOCH":23133,"BSTAR":-0.00011263689,"MEAN_MOTION_DOT":-2.9e-7,"MEAN_MOTION_DDOT":0},{"OBJECT_NAME":"ONEWEB-0220","OBJECT_ID":"2021-031Y","EPOCH":"2026-02-09T05:14:50.885664","MEAN_MOTION":13.14503602,"ECCENTRICITY":0.00019175,"INCLINATION":87.903,"RA_OF_ASC_NODE":315.2075,"ARG_OF_PERICENTER":81.077,"MEAN_ANOMALY":279.0577,"EPHEMERIS_TYPE":0,"CLASSIFICATION_TYPE":"U","NORAD_CAT_ID":48232,"ELEMENT_SET_NO":999,"REV_AT_EPOCH":23159,"BSTAR":0.00075998252,"MEAN_MOTION_DOT":2.95e-6,"MEAN_MOTION_DDOT":0},{"OBJECT_NAME":"ONEWEB-0165","OBJECT_ID":"2021-031Z","EPOCH":"2026-02-09T05:55:57.417312","MEAN_MOTION":13.14503564,"ECCENTRICITY":0.00016909,"INCLINATION":87.9017,"RA_OF_ASC_NODE":315.2202,"ARG_OF_PERICENTER":88.1898,"MEAN_ANOMALY":271.9426,"EPHEMERIS_TYPE":0,"CLASSIFICATION_TYPE":"U","NORAD_CAT_ID":48233,"ELEMENT_SET_NO":999,"REV_AT_EPOCH":23155,"BSTAR":-0.00034954703,"MEAN_MOTION_DOT":-1.17e-6,"MEAN_MOTION_DDOT":0},{"OBJECT_NAME":"ONEWEB-0199","OBJECT_ID":"2021-031AA","EPOCH":"2026-02-09T05:33:07.193664","MEAN_MOTION":13.14503935,"ECCENTRICITY":0.00016168,"INCLINATION":87.9029,"RA_OF_ASC_NODE":315.204,"ARG_OF_PERICENTER":77.8129,"MEAN_ANOMALY":282.3182,"EPHEMERIS_TYPE":0,"CLASSIFICATION_TYPE":"U","NORAD_CAT_ID":48234,"ELEMENT_SET_NO":999,"REV_AT_EPOCH":23145,"BSTAR":0.00011526021,"MEAN_MOTION_DOT":5.6e-7,"MEAN_MOTION_DDOT":0},{"OBJECT_NAME":"ONEWEB-0203","OBJECT_ID":"2021-031AB","EPOCH":"2026-02-09T05:19:24.372768","MEAN_MOTION":13.14504496,"ECCENTRICITY":0.00014808,"INCLINATION":87.9027,"RA_OF_ASC_NODE":315.2049,"ARG_OF_PERICENTER":81.9141,"MEAN_ANOMALY":278.2156,"EPHEMERIS_TYPE":0,"CLASSIFICATION_TYPE":"U","NORAD_CAT_ID":48235,"ELEMENT_SET_NO":999,"REV_AT_EPOCH":23146,"BSTAR":0.00056441572,"MEAN_MOTION_DOT":2.22e-6,"MEAN_MOTION_DDOT":0},{"OBJECT_NAME":"ONEWEB-0197","OBJECT_ID":"2021-031AC","EPOCH":"2026-02-09T06:32:17.669472","MEAN_MOTION":13.14504864,"ECCENTRICITY":0.00019527,"INCLINATION":87.9027,"RA_OF_ASC_NODE":315.1948,"ARG_OF_PERICENTER":72.0417,"MEAN_ANOMALY":288.0925,"EPHEMERIS_TYPE":0,"CLASSIFICATION_TYPE":"U","NORAD_CAT_ID":48236,"ELEMENT_SET_NO":999,"REV_AT_EPOCH":23138,"BSTAR":0.0004230128,"MEAN_MOTION_DOT":1.7e-6,"MEAN_MOTION_DDOT":0},{"OBJECT_NAME":"ONEWEB-0194","OBJECT_ID":"2021-031AD","EPOCH":"2026-02-09T06:02:47.633280","MEAN_MOTION":13.1450527,"ECCENTRICITY":0.00014973,"INCLINATION":87.9026,"RA_OF_ASC_NODE":315.2157,"ARG_OF_PERICENTER":73.1349,"MEAN_ANOMALY":286.9945,"EPHEMERIS_TYPE":0,"CLASSIFICATION_TYPE":"U","NORAD_CAT_ID":48237,"ELEMENT_SET_NO":999,"REV_AT_EPOCH":23155,"BSTAR":-0.00022514912,"MEAN_MOTION_DOT":-7.1e-7,"MEAN_MOTION_DDOT":0},{"OBJECT_NAME":"ONEWEB-0193","OBJECT_ID":"2021-031AE","EPOCH":"2026-02-09T06:25:38.644896","MEAN_MOTION":13.14504217,"ECCENTRICITY":0.00013406,"INCLINATION":87.9019,"RA_OF_ASC_NODE":315.2059,"ARG_OF_PERICENTER":67.8628,"MEAN_ANOMALY":292.2644,"EPHEMERIS_TYPE":0,"CLASSIFICATION_TYPE":"U","NORAD_CAT_ID":48238,"ELEMENT_SET_NO":999,"REV_AT_EPOCH":23150,"BSTAR":0.00043306107,"MEAN_MOTION_DOT":1.73e-6,"MEAN_MOTION_DDOT":0},{"OBJECT_NAME":"ONEWEB-0191","OBJECT_ID":"2021-031AF","EPOCH":"2026-02-09T06:41:37.674528","MEAN_MOTION":13.14504231,"ECCENTRICITY":0.00017072,"INCLINATION":87.9029,"RA_OF_ASC_NODE":315.1977,"ARG_OF_PERICENTER":75.3903,"MEAN_ANOMALY":284.7416,"EPHEMERIS_TYPE":0,"CLASSIFICATION_TYPE":"U","NORAD_CAT_ID":48239,"ELEMENT_SET_NO":999,"REV_AT_EPOCH":23136,"BSTAR":0.00075828639,"MEAN_MOTION_DOT":2.94e-6,"MEAN_MOTION_DDOT":0},{"OBJECT_NAME":"ONEWEB-0195","OBJECT_ID":"2021-031AG","EPOCH":"2026-02-09T06:08:30.179040","MEAN_MOTION":13.14504022,"ECCENTRICITY":0.00017935,"INCLINATION":87.9027,"RA_OF_ASC_NODE":315.199,"ARG_OF_PERICENTER":90.4149,"MEAN_ANOMALY":269.7186,"EPHEMERIS_TYPE":0,"CLASSIFICATION_TYPE":"U","NORAD_CAT_ID":48240,"ELEMENT_SET_NO":999,"REV_AT_EPOCH":23134,"BSTAR":-0.00027135784,"MEAN_MOTION_DOT":-8.8e-7,"MEAN_MOTION_DDOT":0},{"OBJECT_NAME":"ONEWEB-0201","OBJECT_ID":"2021-031AH","EPOCH":"2026-02-09T05:51:34.445088","MEAN_MOTION":13.14503125,"ECCENTRICITY":0.00019982,"INCLINATION":87.902,"RA_OF_ASC_NODE":315.2325,"ARG_OF_PERICENTER":80.632,"MEAN_ANOMALY":279.5035,"EPHEMERIS_TYPE":0,"CLASSIFICATION_TYPE":"U","NORAD_CAT_ID":48241,"ELEMENT_SET_NO":999,"REV_AT_EPOCH":23157,"BSTAR":-0.00031371593,"MEAN_MOTION_DOT":-1.04e-6,"MEAN_MOTION_DDOT":0},{"OBJECT_NAME":"ONEWEB-0207","OBJECT_ID":"2021-031AJ","EPOCH":"2026-02-09T05:22:50.584512","MEAN_MOTION":13.14503528,"ECCENTRICITY":0.00019405,"INCLINATION":87.9031,"RA_OF_ASC_NODE":315.2056,"ARG_OF_PERICENTER":74.9051,"MEAN_ANOMALY":285.2294,"EPHEMERIS_TYPE":0,"CLASSIFICATION_TYPE":"U","NORAD_CAT_ID":48242,"ELEMENT_SET_NO":999,"REV_AT_EPOCH":23148,"BSTAR":0.00024628703,"MEAN_MOTION_DOT":1.04e-6,"MEAN_MOTION_DDOT":0},{"OBJECT_NAME":"ONEWEB-0208","OBJECT_ID":"2021-031AK","EPOCH":"2026-02-09T06:46:11.429472","MEAN_MOTION":13.14503904,"ECCENTRICITY":0.00017255,"INCLINATION":87.9025,"RA_OF_ASC_NODE":315.2078,"ARG_OF_PERICENTER":88.0453,"MEAN_ANOMALY":272.0874,"EPHEMERIS_TYPE":0,"CLASSIFICATION_TYPE":"U","NORAD_CAT_ID":48243,"ELEMENT_SET_NO":999,"REV_AT_EPOCH":23150,"BSTAR":0.00055330262,"MEAN_MOTION_DOT":2.18e-6,"MEAN_MOTION_DDOT":0},{"OBJECT_NAME":"ONEWEB-0200","OBJECT_ID":"2021-031AL","EPOCH":"2026-02-09T05:53:39.751872","MEAN_MOTION":13.14503381,"ECCENTRICITY":0.00017919,"INCLINATION":87.9025,"RA_OF_ASC_NODE":315.2036,"ARG_OF_PERICENTER":79.9744,"MEAN_ANOMALY":280.1588,"EPHEMERIS_TYPE":0,"CLASSIFICATION_TYPE":"U","NORAD_CAT_ID":48244,"ELEMENT_SET_NO":999,"REV_AT_EPOCH":23142,"BSTAR":-0.00047057344,"MEAN_MOTION_DOT":-1.62e-6,"MEAN_MOTION_DDOT":0},{"OBJECT_NAME":"ONEWEB-0217","OBJECT_ID":"2021-031AM","EPOCH":"2026-02-09T06:16:30.226080","MEAN_MOTION":13.14503196,"ECCENTRICITY":0.00017592,"INCLINATION":87.9028,"RA_OF_ASC_NODE":315.1994,"ARG_OF_PERICENTER":88.8842,"MEAN_ANOMALY":271.2489,"EPHEMERIS_TYPE":0,"CLASSIFICATION_TYPE":"U","NORAD_CAT_ID":48245,"ELEMENT_SET_NO":999,"REV_AT_EPOCH":23137,"BSTAR":-1.626826e-6,"MEAN_MOTION_DOT":1.2e-7,"MEAN_MOTION_DDOT":0},{"OBJECT_NAME":"ONEWEB-0211","OBJECT_ID":"2021-045A","EPOCH":"2026-02-09T04:07:18.211584","MEAN_MOTION":13.16141746,"ECCENTRICITY":0.00014169,"INCLINATION":87.8984,"RA_OF_ASC_NODE":284.6678,"ARG_OF_PERICENTER":98.5465,"MEAN_ANOMALY":261.5826,"EPHEMERIS_TYPE":0,"CLASSIFICATION_TYPE":"U","NORAD_CAT_ID":48767,"ELEMENT_SET_NO":999,"REV_AT_EPOCH":22760,"BSTAR":-4.822109e-5,"MEAN_MOTION_DOT":-5.0e-8,"MEAN_MOTION_DDOT":0},{"OBJECT_NAME":"ONEWEB-0223","OBJECT_ID":"2021-045B","EPOCH":"2026-02-09T04:31:50.754432","MEAN_MOTION":13.15549904,"ECCENTRICITY":0.00012057,"INCLINATION":87.8983,"RA_OF_ASC_NODE":284.74,"ARG_OF_PERICENTER":96.6853,"MEAN_ANOMALY":263.4414,"EPHEMERIS_TYPE":0,"CLASSIFICATION_TYPE":"U","NORAD_CAT_ID":48768,"ELEMENT_SET_NO":999,"REV_AT_EPOCH":22757,"BSTAR":0.00049759539,"MEAN_MOTION_DOT":2.0e-6,"MEAN_MOTION_DDOT":0},{"OBJECT_NAME":"ONEWEB-0230","OBJECT_ID":"2021-045C","EPOCH":"2026-02-09T05:40:17.633280","MEAN_MOTION":13.15549437,"ECCENTRICITY":0.00015677,"INCLINATION":87.8976,"RA_OF_ASC_NODE":284.7557,"ARG_OF_PERICENTER":75.6841,"MEAN_ANOMALY":284.4463,"EPHEMERIS_TYPE":0,"CLASSIFICATION_TYPE":"U","NORAD_CAT_ID":48769,"ELEMENT_SET_NO":999,"REV_AT_EPOCH":22784,"BSTAR":-0.00011187635,"MEAN_MOTION_DOT":-2.9e-7,"MEAN_MOTION_DDOT":0},{"OBJECT_NAME":"ONEWEB-0237","OBJECT_ID":"2021-045D","EPOCH":"2026-02-09T05:24:19.026144","MEAN_MOTION":13.15549273,"ECCENTRICITY":0.00012581,"INCLINATION":87.8981,"RA_OF_ASC_NODE":284.7594,"ARG_OF_PERICENTER":83.0713,"MEAN_ANOMALY":277.056,"EPHEMERIS_TYPE":0,"CLASSIFICATION_TYPE":"U","NORAD_CAT_ID":48770,"ELEMENT_SET_NO":999,"REV_AT_EPOCH":22756,"BSTAR":-0.00014008876,"MEAN_MOTION_DOT":-4.0e-7,"MEAN_MOTION_DDOT":0}]
